CCSDS_OMM_VERS = 2.0
CREATION_DATE  = 
ORIGINATOR     = 

OBJECT_NAME    = AQUA
OBJECT_ID      = 2002-022A
CENTER_NAME    = EARTH
REF_FRAME      = TEME
TIME_SYSTEM    = UTC
MEAN_ELEMENT_THEORY = SGP/SGP4

EPOCH          = 2026-03-21T04:30:43.943904
MEAN_MOTION    = 14.62002233
ECCENTRICITY   = .00008259
INCLINATION    = 98.4195
RA_OF_ASC_NODE = 47.7640
ARG_OF_PERICENTER = 114.3168
MEAN_ANOMALY   = 335.6230

EPHEMERIS_TYPE = 0
CLASSIFICATION_TYPE = U
NORAD_CAT_ID   = 27424
ELEMENT_SET_NO = 999
REV_AT_EPOCH   = 27041
BSTAR          = .18436546E-3
MEAN_MOTION_DOT = .875E-5
MEAN_MOTION_DDOT = 0

CCSDS_OMM_VERS = 2.0
CREATION_DATE  = 
ORIGINATOR     = 

OBJECT_NAME    = CZ-4B R/B
OBJECT_ID      = 2002-024C
CENTER_NAME    = EARTH
REF_FRAME      = TEME
TIME_SYSTEM    = UTC
MEAN_ELEMENT_THEORY = SGP/SGP4

EPOCH          = 2026-03-21T04:17:41.890848
MEAN_MOTION    = 14.14549673
ECCENTRICITY   = .0049885
INCLINATION    = 98.8813
RA_OF_ASC_NODE = 133.5265
ARG_OF_PERICENTER = 351.6257
MEAN_ANOMALY   = 75.4308

EPHEMERIS_TYPE = 0
CLASSIFICATION_TYPE = U
NORAD_CAT_ID   = 27432
ELEMENT_SET_NO = 999
REV_AT_EPOCH   = 23086
BSTAR          = .41265024E-4
MEAN_MOTION_DOT = .35E-6
MEAN_MOTION_DDOT = 0

CCSDS_OMM_VERS = 2.0
CREATION_DATE  = 
ORIGINATOR     = 

OBJECT_NAME    = MIDORI II (ADEOS-II)
OBJECT_ID      = 2002-056A
CENTER_NAME    = EARTH
REF_FRAME      = TEME
TIME_SYSTEM    = UTC
MEAN_ELEMENT_THEORY = SGP/SGP4

EPOCH          = 2026-03-20T20:44:46.066848
MEAN_MOTION    = 14.29293116
ECCENTRICITY   = .00011246
INCLINATION    = 98.7789
RA_OF_ASC_NODE = 38.4206
ARG_OF_PERICENTER = 28.4412
MEAN_ANOMALY   = 331.6831

EPHEMERIS_TYPE = 0
CLASSIFICATION_TYPE = U
NORAD_CAT_ID   = 27597
ELEMENT_SET_NO = 999
REV_AT_EPOCH   = 21189
BSTAR          = .11875747E-3
MEAN_MOTION_DOT = .257E-5
MEAN_MOTION_DDOT = 0

CCSDS_OMM_VERS = 2.0
CREATION_DATE  = 
ORIGINATOR     = 

OBJECT_NAME    = H-2A R/B
OBJECT_ID      = 2002-056E
CENTER_NAME    = EARTH
REF_FRAME      = TEME
TIME_SYSTEM    = UTC
MEAN_ELEMENT_THEORY = SGP/SGP4

EPOCH          = 2026-03-21T03:25:36.732864
MEAN_MOTION    = 14.33767744
ECCENTRICITY   = .00711176
INCLINATION    = 98.3223
RA_OF_ASC_NODE = 40.0737
ARG_OF_PERICENTER = 126.8442
MEAN_ANOMALY   = 244.9131

EPHEMERIS_TYPE = 0
CLASSIFICATION_TYPE = U
NORAD_CAT_ID   = 27601
ELEMENT_SET_NO = 999
REV_AT_EPOCH   = 21575
BSTAR          = .95201313E-4
MEAN_MOTION_DOT = .231E-5
MEAN_MOTION_DDOT = 0

CCSDS_OMM_VERS = 2.0
CREATION_DATE  = 
ORIGINATOR     = 

OBJECT_NAME    = CZ-4B R/B
OBJECT_ID      = 2003-049C
CENTER_NAME    = EARTH
REF_FRAME      = TEME
TIME_SYSTEM    = UTC
MEAN_ELEMENT_THEORY = SGP/SGP4

EPOCH          = 2026-03-21T00:07:34.332672
MEAN_MOTION    = 14.55030016
ECCENTRICITY   = .00478042
INCLINATION    = 98.6890
RA_OF_ASC_NODE = 75.3549
ARG_OF_PERICENTER = 195.8712
MEAN_ANOMALY   = 164.0988

EPHEMERIS_TYPE = 0
CLASSIFICATION_TYPE = U
NORAD_CAT_ID   = 28059
ELEMENT_SET_NO = 999
REV_AT_EPOCH   = 18824
BSTAR          = .81157903E-4
MEAN_MOTION_DOT = .303E-5
MEAN_MOTION_DDOT = 0

CCSDS_OMM_VERS = 2.0
CREATION_DATE  = 
ORIGINATOR     = 

OBJECT_NAME    = CZ-2C R/B
OBJECT_ID      = 2004-012C
CENTER_NAME    = EARTH
REF_FRAME      = TEME
TIME_SYSTEM    = UTC
MEAN_ELEMENT_THEORY = SGP/SGP4

EPOCH          = 2026-03-21T04:20:19.623552
MEAN_MOTION    = 15.65814709
ECCENTRICITY   = .00130336
INCLINATION    = 97.7189
RA_OF_ASC_NODE = 146.5713
ARG_OF_PERICENTER = 263.5323
MEAN_ANOMALY   = 96.4452

EPHEMERIS_TYPE = 0
CLASSIFICATION_TYPE = U
NORAD_CAT_ID   = 28222
ELEMENT_SET_NO = 999
REV_AT_EPOCH   = 20607
BSTAR          = .70076439E-3
MEAN_MOTION_DOT = .71641E-3
MEAN_MOTION_DDOT = 0

CCSDS_OMM_VERS = 2.0
CREATION_DATE  = 
ORIGINATOR     = 

OBJECT_NAME    = SL-16 R/B
OBJECT_ID      = 2004-021B
CENTER_NAME    = EARTH
REF_FRAME      = TEME
TIME_SYSTEM    = UTC
MEAN_ELEMENT_THEORY = SGP/SGP4

EPOCH          = 2026-03-20T18:30:17.404992
MEAN_MOTION    = 14.14593505
ECCENTRICITY   = .00045937
INCLINATION    = 70.9998
RA_OF_ASC_NODE = 209.2369
ARG_OF_PERICENTER = 355.9383
MEAN_ANOMALY   = 4.1702

EPHEMERIS_TYPE = 0
CLASSIFICATION_TYPE = U
NORAD_CAT_ID   = 28353
ELEMENT_SET_NO = 999
REV_AT_EPOCH   = 12440
BSTAR          = -.58357574E-4
MEAN_MOTION_DOT = -.16E-5
MEAN_MOTION_DDOT = 0

CCSDS_OMM_VERS = 2.0
CREATION_DATE  = 
ORIGINATOR     = 

OBJECT_NAME    = CZ-4B R/B
OBJECT_ID      = 2004-035C
CENTER_NAME    = EARTH
REF_FRAME      = TEME
TIME_SYSTEM    = UTC
MEAN_ELEMENT_THEORY = SGP/SGP4

EPOCH          = 2026-03-21T02:22:31.585152
MEAN_MOTION    = 15.29246207
ECCENTRICITY   = .00301017
INCLINATION    = 97.3474
RA_OF_ASC_NODE = 114.2049
ARG_OF_PERICENTER = 289.0486
MEAN_ANOMALY   = 70.7494

EPHEMERIS_TYPE = 0
CLASSIFICATION_TYPE = U
NORAD_CAT_ID   = 28415
ELEMENT_SET_NO = 999
REV_AT_EPOCH   = 18165
BSTAR          = .27263195E-3
MEAN_MOTION_DOT = .7764E-4
MEAN_MOTION_DDOT = 0

CCSDS_OMM_VERS = 2.0
CREATION_DATE  = 
ORIGINATOR     = 

OBJECT_NAME    = CZ-2C R/B
OBJECT_ID      = 2004-046B
CENTER_NAME    = EARTH
REF_FRAME      = TEME
TIME_SYSTEM    = UTC
MEAN_ELEMENT_THEORY = SGP/SGP4

EPOCH          = 2026-03-21T04:41:20.330016
MEAN_MOTION    = 14.26995767
ECCENTRICITY   = .01404348
INCLINATION    = 98.1980
RA_OF_ASC_NODE = 354.4628
ARG_OF_PERICENTER = 120.5990
MEAN_ANOMALY   = 240.9130

EPHEMERIS_TYPE = 0
CLASSIFICATION_TYPE = U
NORAD_CAT_ID   = 28480
ELEMENT_SET_NO = 999
REV_AT_EPOCH   = 11014
BSTAR          = .57556298E-4
MEAN_MOTION_DOT = .116E-5
MEAN_MOTION_DDOT = 0

CCSDS_OMM_VERS = 2.0
CREATION_DATE  = 
ORIGINATOR     = 

OBJECT_NAME    = ARIANE 5 R/B
OBJECT_ID      = 2004-049H
CENTER_NAME    = EARTH
REF_FRAME      = TEME
TIME_SYSTEM    = UTC
MEAN_ELEMENT_THEORY = SGP/SGP4

EPOCH          = 2026-03-21T00:25:39.267840
MEAN_MOTION    = 14.85285018
ECCENTRICITY   = .00832007
INCLINATION    = 98.2643
RA_OF_ASC_NODE = 248.9002
ARG_OF_PERICENTER = 314.9701
MEAN_ANOMALY   = 44.4787

EPHEMERIS_TYPE = 0
CLASSIFICATION_TYPE = U
NORAD_CAT_ID   = 28499
ELEMENT_SET_NO = 999
REV_AT_EPOCH   = 14747
BSTAR          = .77001415E-4
MEAN_MOTION_DOT = .637E-5
MEAN_MOTION_DDOT = 0

CCSDS_OMM_VERS = 2.0
CREATION_DATE  = 
ORIGINATOR     = 

OBJECT_NAME    = CZ-2D R/B
OBJECT_ID      = 2005-024B
CENTER_NAME    = EARTH
REF_FRAME      = TEME
TIME_SYSTEM    = UTC
MEAN_ELEMENT_THEORY = SGP/SGP4

EPOCH          = 2026-03-20T06:56:07.828800
MEAN_MOTION    = 15.61045673
ECCENTRICITY   = .0003983
INCLINATION    = 97.3582
RA_OF_ASC_NODE = 94.8309
ARG_OF_PERICENTER = 16.3856
MEAN_ANOMALY   = 343.7530

EPHEMERIS_TYPE = 0
CLASSIFICATION_TYPE = U
NORAD_CAT_ID   = 28738
ELEMENT_SET_NO = 999
REV_AT_EPOCH   = 14143
BSTAR          = .3545E-3
MEAN_MOTION_DOT = .29756E-3
MEAN_MOTION_DDOT = 0

CCSDS_OMM_VERS = 2.0
CREATION_DATE  = 
ORIGINATOR     = 

OBJECT_NAME    = ALOS (DAICHI)
OBJECT_ID      = 2006-002A
CENTER_NAME    = EARTH
REF_FRAME      = TEME
TIME_SYSTEM    = UTC
MEAN_ELEMENT_THEORY = SGP/SGP4

EPOCH          = 2026-03-20T20:55:08.382720
MEAN_MOTION    = 14.69842990
ECCENTRICITY   = .00007021
INCLINATION    = 98.1238
RA_OF_ASC_NODE = 35.7724
ARG_OF_PERICENTER = 85.8225
MEAN_ANOMALY   = 274.3061

EPHEMERIS_TYPE = 0
CLASSIFICATION_TYPE = U
NORAD_CAT_ID   = 28931
ELEMENT_SET_NO = 999
REV_AT_EPOCH   = 7512
BSTAR          = .20029749E-3
MEAN_MOTION_DOT = .1147E-4
MEAN_MOTION_DDOT = 0

