AQUA                    
1 27424U 02022A   26080.18800861  .00000875  00000+0  18437-3 0  9998
2 27424  98.4195  47.7640 0000825 114.3168 335.6230 14.62002233270413
CZ-4B R/B               
1 27432U 02024C   26080.17895707  .00000035  00000+0  41265-4 0  9995
2 27432  98.8813 133.5265 0049885 351.6257  75.4308 14.14549673230865
MIDORI II (ADEOS-II)    
1 27597U 02056A   26079.86442207  .00000257  00000+0  11876-3 0  9999
2 27597  98.7789  38.4206 0001124  28.4412 331.6831 14.29293116211896
H-2A R/B                
1 27601U 02056E   26080.14278626  .00000231  00000+0  95201-4 0  9997
2 27601  98.3223  40.0737 0071117 126.8442 244.9131 14.33767744215750
CZ-4B R/B               
1 28059U 03049C   26080.00525848  .00000303  00000+0  81158-4 0  9990
2 28059  98.6890  75.3549 0047804 195.8712 164.0988 14.55030016188249
CZ-2C R/B               
1 28222U 04012C   26080.18078268  .00071641  00000+0  70076-3 0  9990
2 28222  97.7189 146.5713 0013033 263.5323  96.4452 15.65814709206071
SL-16 R/B               
1 28353U 04021B   26079.77103478 -.00000160  00000+0 -58358-4 0  9990
2 28353  70.9998 209.2369 0004593 355.9383   4.1702 14.14593505124405
CZ-4B R/B               
1 28415U 04035C   26080.09897668  .00007764  00000+0  27263-3 0  9997
2 28415  97.3474 114.2049 0030101 289.0486  70.7494 15.29246207181659
CZ-2C R/B               
1 28480U 04046B   26080.19537419  .00000116  00000+0  57556-4 0  9990
2 28480  98.1980 354.4628 0140434 120.5990 240.9130 14.26995767110145
ARIANE 5 R/B            
1 28499U 04049H   26080.01781560  .00000637  00000+0  77001-4 0  9997
2 28499  98.2643 248.9002 0083200 314.9701  44.4787 14.85285018147478
CZ-2D R/B               
1 28738U 05024B   26079.28897950  .00029756  00000+0  35450-3 0  9999
2 28738  97.3582  94.8309 0003983  16.3856 343.7530 15.61045673141435
ALOS (DAICHI)           
1 28931U 06002A   26079.87162480  .00001147  00000+0  20030-3 0  9991
2 28931  98.1238  35.7724 0000702  85.8225 274.3061 14.69842990 75123
